[Satellite]
VERSION=1.1
NAME=FLOCK 3P-8
NICKNAME=FLOCK 3P-8
TLE1=1 41951U 17008D   17186.18074495  .00002947  00000-0  13017-3 0  9994
TLE2=2 41951  97.4947 247.4402 0010106 124.0904 236.1293 15.22492519 21260
